CTC2_L_00007001-01
1 68793U 25390ZB  26070.40841435  .00000000  00000+0  00000-0 0  9995
2 68793  40.0000   0.0000 0000000   0.0000   0.0000 15.80155680    19
CTC2_L_00007001-02
1 68794U 23098PT  26070.40841435  .00000000  00000+0  00000-0 0  9999
2 68794  40.0000   0.0000 0000000   0.0000  90.0000 15.80155680    19
CTC2_L_00007001-03
1 68795U 22616OV  26070.40841435  .00000000  00000+0  00000-0 0  9995
2 68795  40.0000   0.0000 0000000   0.0000 180.0000 15.80155680    10
CTC2_L_00007001-04
1 68796U 25566AM  26070.40841435  .00000000  00000+0  00000-0 0  9993
2 68796  40.0000   0.0000 0000000   0.0000 270.0000 15.80155680    11
CTC2_L_00007002-01
1 68797U 23846RB  26070.40841435  .00000000  00000+0  00000-0 0  9993
2 68797  40.0000  12.0000 0000000   0.0000  12.0000 15.80155680    19
CTC2_L_00007002-02
1 68798U 23731VM  26070.40841435  .00000000  00000+0  00000-0 0  9997
2 68798  40.0000  12.0000 0000000   0.0000 102.0000 15.80155680    10
CTC2_L_00007002-03
1 68799U 22366JJ  26070.40841435  .00000000  00000+0  00000-0 0  9991
2 68799  40.0000  12.0000 0000000   0.0000 192.0000 15.80155680    10
CTC2_L_00007002-04
1 68800U 22910WY  26070.40841435  .00000000  00000+0  00000-0 0  9999
2 68800  40.0000  12.0000 0000000   0.0000 282.0000 15.80155680    13
CTC2_L_00007003-01
1 68801U 26207MD  26070.40841435  .00000000  00000+0  00000-0 0  9993
2 68801  40.0000  24.0000 0000000   0.0000  24.0000 15.80155680    11
CTC2_L_00007003-02
1 68802U 26968YH  26070.40841435  .00000000  00000+0  00000-0 0  9998
2 68802  40.0000  24.0000 0000000   0.0000 114.0000 15.80155680    12
CTC2_L_00007003-03
1 68803U 26290CP  26070.40841435  .00000000  00000+0  00000-0 0  9997
2 68803  40.0000  24.0000 0000000   0.0000 204.0000 15.80155680    13
CTC2_L_00007003-04
1 68804U 23723RJ  26070.40841435  .00000000  00000+0  00000-0 0  9996
2 68804  40.0000  24.0000 0000000   0.0000 294.0000 15.80155680    13
CTC2_L_00007004-01
1 68805U 23298AC  26070.40841435  .00000000  00000+0  00000-0 0  9994
2 68805  40.0000  36.0000 0000000   0.0000  36.0000 15.80155680    11
CTC2_L_00007004-02
1 68806U 26526Y   26070.40841435  .00000000  00000+0  00000-0 0  9992
2 68806  40.0000  36.0000 0000000   0.0000 126.0000 15.80155680    12
CTC2_L_00007004-03
1 68807U 23266HF  26070.40841435  .00000000  00000+0  00000-0 0  9991
2 68807  40.0000  36.0000 0000000   0.0000 216.0000 15.80155680    13
CTC2_L_00007004-04
1 68808U 26895MQ  26070.40841435  .00000000  00000+0  00000-0 0  9993
2 68808  40.0000  36.0000 0000000   0.0000 306.0000 15.80155680    14
CTC2_L_00007005-01
1 68809U 22495NJ  26070.40841435  .00000000  00000+0  00000-0 0  9996
2 68809  40.0000  48.0000 0000000   0.0000  48.0000 15.80155680    11
CTC2_L_00007005-02
1 68810U 23510N   26070.40841435  .00000000  00000+0  00000-0 0  9997
2 68810  40.0000  48.0000 0000000   0.0000 138.0000 15.80155680    13
CTC2_L_00007005-03
1 68811U 25795CM  26070.40841435  .00000000  00000+0  00000-0 0  9995
2 68811  40.0000  48.0000 0000000   0.0000 228.0000 15.80155680    14
CTC2_L_00007005-04
1 68812U 24446TO  26070.40841435  .00000000  00000+0  00000-0 0  9998
2 68812  40.0000  48.0000 0000000   0.0000 318.0000 15.80155680    15
CTC2_L_00007006-01
1 68813U 25462KO  26070.40841435  .00000000  00000+0  00000-0 0  9998
2 68813  40.0000  60.0000 0000000   0.0000  60.0000 15.80155680    14
CTC2_L_00007006-02
1 68814U 24694UZ  26070.40841435  .00000000  00000+0  00000-0 0  9995
2 68814  40.0000  60.0000 0000000   0.0000 150.0000 15.80155680    15
CTC2_L_00007006-03
1 68815U 24884VW  26070.40841435  .00000000  00000+0  00000-0 0  9997
2 68815  40.0000  60.0000 0000000   0.0000 240.0000 15.80155680    16
CTC2_L_00007006-04
1 68816U 23044XB  26070.40841435  .00000000  00000+0  00000-0 0  9995
2 68816  40.0000  60.0000 0000000   0.0000 330.0000 15.80155680    17
CTC2_L_00007007-01
1 68817U 26697WE  26070.40841435  .00000000  00000+0  00000-0 0  9993
2 68817  40.0000  72.0000 0000000   0.0000  72.0000 15.80155680    14
CTC2_L_00007007-02
1 68818U 26345HU  26070.40841435  .00000000  00000+0  00000-0 0  9994
2 68818  40.0000  72.0000 0000000   0.0000 162.0000 15.80155680    15
CTC2_L_00007007-03
1 68819U 24128VR  26070.40841435  .00000000  00000+0  00000-0 0  9992
2 68819  40.0000  72.0000 0000000   0.0000 252.0000 15.80155680    16
CTC2_L_00007007-04
1 68820U 25189WJ  26070.40841435  .00000000  00000+0  00000-0 0  9992
2 68820  40.0000  72.0000 0000000   0.0000 342.0000 15.80155680    18
CTC2_L_00007008-01
1 68821U 22780UR  26070.40841435  .00000000  00000+0  00000-0 0  9997
2 68821  40.0000  84.0000 0000000   0.0000  84.0000 15.80155680    15
CTC2_L_00007008-02
1 68822U 26344XT  26070.40841435  .00000000  00000+0  00000-0 0  9998
2 68822  40.0000  84.0000 0000000   0.0000 174.0000 15.80155680    16
CTC2_L_00007008-03
1 68823U 23956YS  26070.40841435  .00000000  00000+0  00000-0 0  9995
2 68823  40.0000  84.0000 0000000   0.0000 264.0000 15.80155680    17
CTC2_L_00007008-04
1 68824U 25188ZY  26070.40841435  .00000000  00000+0  00000-0 0  9995
2 68824  40.0000  84.0000 0000000   0.0000 354.0000 15.80155680    18
CTC2_L_00007009-01
1 68825U 24869NM  26070.40841435  .00000000  00000+0  00000-0 0  9991
2 68825  40.0000  96.0000 0000000   0.0000  96.0000 15.80155680    15
CTC2_L_00007009-02
1 68826U 23657KI  26070.40841435  .00000000  00000+0  00000-0 0  9996
2 68826  40.0000  96.0000 0000000   0.0000 186.0000 15.80155680    16
CTC2_L_00007009-03
1 68827U 24971TJ  26070.40841435  .00000000  00000+0  00000-0 0  9997
2 68827  40.0000  96.0000 0000000   0.0000 276.0000 15.80155680    17
CTC2_L_00007009-04
1 68828U 25800PM  26070.40841435  .00000000  00000+0  00000-0 0  9990
2 68828  40.0000  96.0000 0000000   0.0000   6.0000 15.80155680    19
CTC2_L_00007010-01
1 68829U 26350YX  26070.40841435  .00000000  00000+0  00000-0 0  9992
2 68829  40.0000 108.0000 0000000   0.0000 108.0000 15.80155680    17
CTC2_L_00007010-02
1 68830U 22909ST  26070.40841435  .00000000  00000+0  00000-0 0  9990
2 68830  40.0000 108.0000 0000000   0.0000 198.0000 15.80155680    18
CTC2_L_00007010-03
1 68831U 23789VB  26070.40841435  .00000000  00000+0  00000-0 0  9998
2 68831  40.0000 108.0000 0000000   0.0000 288.0000 15.80155680    19
CTC2_L_00007010-04
1 68832U 23430MZ  26070.40841435  .00000000  00000+0  00000-0 0  9992
2 68832  40.0000 108.0000 0000000   0.0000  18.0000 15.80155680    11
CTC2_L_00007011-01
1 68833U 25098TN  26070.40841435  .00000000  00000+0  00000-0 0  9995
2 68833  40.0000 120.0000 0000000   0.0000 120.0000 15.80155680    10
CTC2_L_00007011-02
1 68834U 25796UU  26070.40841435  .00000000  00000+0  00000-0 0  9991
2 68834  40.0000 120.0000 0000000   0.0000 210.0000 15.80155680    11
CTC2_L_00007011-03
1 68835U 23826XN  26070.40841435  .00000000  00000+0  00000-0 0  9994
2 68835  40.0000 120.0000 0000000   0.0000 300.0000 15.80155680    12
CTC2_L_00007011-04
1 68836U 23118JJ  26070.40841435  .00000000  00000+0  00000-0 0  9999
2 68836  40.0000 120.0000 0000000   0.0000  30.0000 15.80155680    13
CTC2_L_00007012-01
1 68837U 24901FL  26070.40841435  .00000000  00000+0  00000-0 0  9991
2 68837  40.0000 132.0000 0000000   0.0000 132.0000 15.80155680    10
CTC2_L_00007012-02
1 68838U 24871OS  26070.40841435  .00000000  00000+0  00000-0 0  9998
2 68838  40.0000 132.0000 0000000   0.0000 222.0000 15.80155680    11
CTC2_L_00007012-03
1 68839U 26553HS  26070.40841435  .00000000  00000+0  00000-0 0  9998
2 68839  40.0000 132.0000 0000000   0.0000 312.0000 15.80155680    12
CTC2_L_00007012-04
1 68840U 24665FI  26070.40841435  .00000000  00000+0  00000-0 0  9992
2 68840  40.0000 132.0000 0000000   0.0000  42.0000 15.80155680    14
CTC2_L_00007013-01
1 68841U 23215RI  26070.40841435  .00000000  00000+0  00000-0 0  9993
2 68841  40.0000 144.0000 0000000   0.0000 144.0000 15.80155680    11
CTC2_L_00007013-02
1 68842U 23617IJ  26070.40841435  .00000000  00000+0  00000-0 0  9990
2 68842  40.0000 144.0000 0000000   0.0000 234.0000 15.80155680    12
CTC2_L_00007013-03
1 68843U 22812XW  26070.40841435  .00000000  00000+0  00000-0 0  9997
2 68843  40.0000 144.0000 0000000   0.0000 324.0000 15.80155680    13
CTC2_L_00007013-04
1 68844U 25252ZL  26070.40841435  .00000000  00000+0  00000-0 0  9999
2 68844  40.0000 144.0000 0000000   0.0000  54.0000 15.80155680    14
CTC2_L_00007014-01
1 68845U 23873OP  26070.40841435  .00000000  00000+0  00000-0 0  9997
2 68845  40.0000 156.0000 0000000   0.0000 156.0000 15.80155680    11
CTC2_L_00007014-02
1 68846U 23391ZT  26070.40841435  .00000000  00000+0  00000-0 0  9993
2 68846  40.0000 156.0000 0000000   0.0000 246.0000 15.80155680    12
CTC2_L_00007014-03
1 68847U 26514TR  26070.40841435  .00000000  00000+0  00000-0 0  9994
2 68847  40.0000 156.0000 0000000   0.0000 336.0000 15.80155680    13
CTC2_L_00007014-04
1 68848U 26748MR  26070.40841435  .00000000  00000+0  00000-0 0  9994
2 68848  40.0000 156.0000 0000000   0.0000  66.0000 15.80155680    14
CTC2_L_00007015-01
1 68849U 23313YY  26070.40841435  .00000000  00000+0  00000-0 0  9990
2 68849  40.0000 168.0000 0000000   0.0000 168.0000 15.80155680    11
CTC2_L_00007015-02
1 68850U 23716AR  26070.40841435  .00000000  00000+0  00000-0 0  9999
2 68850  40.0000 168.0000 0000000   0.0000 258.0000 15.80155680    13
CTC2_L_00007015-03
1 68851U 26262RA  26070.40841435  .00000000  00000+0  00000-0 0  9999
2 68851  40.0000 168.0000 0000000   0.0000 348.0000 15.80155680    14
CTC2_L_00007015-04
1 68852U 25213ZH  26070.40841435  .00000000  00000+0  00000-0 0  9995
2 68852  40.0000 168.0000 0000000   0.0000  78.0000 15.80155680    15
CTC2_L_00007016-01
1 68853U 23142GE  26070.40841435  .00000000  00000+0  00000-0 0  9995
2 68853  40.0000 180.0000 0000000   0.0000 180.0000 15.80155680    14
CTC2_L_00007016-02
1 68854U 23079PV  26070.40841435  .00000000  00000+0  00000-0 0  9995
2 68854  40.0000 180.0000 0000000   0.0000 270.0000 15.80155680    15
